{"type": "FeatureCollection", "features": [ {"type": "Feature", "properties": {"norad_id": 30320, "name": "FENGYUN 1C DEB", "group": "fengyun-1c-debris", "lat": -15.684529881705934, "lon": 55.205627339590954, "alt_km": 879.5569628310977, "timestamp": "2025-12-19T06:59:44.184090+00:00", "meta": {"OBJECT_NAME": "FENGYUN 1C DEB", "OBJECT_ID": "1999-025AAH", "EPOCH": "2025-12-18T10:32:55.718592", "MEAN_MOTION": 13.98557653, "ECCENTRICITY": 0.00850072, "INCLINATION": 99.1869, "RA_OF_ASC_NODE": 51.7479, "ARG_OF_PERICENTER": 278.8359, "MEAN_ANOMALY": 97.4167, "EPHEMERIS_TYPE": 0, "CLASSIFICATION_TYPE": "U", "NORAD_CAT_ID": 30320, "ELEMENT_SET_NO": 999, "REV_AT_EPOCH": 96487, "BSTAR": 0.0001493068, "MEAN_MOTION_DOT": 1.75e-06, "MEAN_MOTION_DDOT": 0}, "tle": {"line1": "1 30320U 99025AAH 25352.43953378  .00000175  00000+0  14931-3 0  9995", "line2": "2 30320  99.1869  51.7479 0085007 278.8359  97.4167 13.98557653964877"}}, "geometry": {"type": "Point", "coordinates": [55.205627339590954, -15.684529881705934]}}, {"type": "Feature", "properties": {"norad_id": 30321, "name": "FENGYUN 1C DEB", "group": "fengyun-1c-debris", "lat": 75.9581641756175, "lon": -150.32760321816897, "alt_km": 848.7756243612739, "timestamp": "2025-12-19T06:59:44.184099+00:00", "meta": {"OBJECT_NAME": "FENGYUN 1C DEB", "OBJECT_ID": "1999-025AAJ", "EPOCH": "2025-12-18T22:19:38.352864", "MEAN_MOTION": 14.16648312, "ECCENTRICITY": 0.0060131, "INCLINATION": 98.656, "RA_OF_ASC_NODE": 351.7983, "ARG_OF_PERICENTER": 218.7996, "MEAN_ANOMALY": 201.9408, "EPHEMERIS_TYPE": 0, "CLASSIFICATION_TYPE": "U", "NORAD_CAT_ID": 30321, "ELEMENT_SET_NO": 999, "REV_AT_EPOCH": 97631, "BSTAR": 0.00024510044, "MEAN_MOTION_DOT": 4.55e-06, "MEAN_MOTION_DDOT": 0}, "tle": {"line1": "1 30321U 99025AAJ 25352.93030501  .00000455  00000+0  24510-3 0  9990", "line2": "2 30321  98.6560 351.7983 0060131 218.7996 201.9408 14.16648312976310"}}, "geometry": {"type": "Point", "coordinates": [-150.32760321816897, 75.9581641756175]}}, {"type": "Feature", "properties": {"norad_id": 30322, "name": "FENGYUN 1C DEB", "group": "fengyun-1c-debris", "lat": -44.08790330266993, "lon": 22.28426382322289, "alt_km": 788.7719966636569, "timestamp": "2025-12-19T06:59:44.184109+00:00", "meta": {"OBJECT_NAME": "FENGYUN 1C DEB", "OBJECT_ID": "1999-025AAK", "EPOCH": "2025-12-18T02:35:57.164928", "MEAN_MOTION": 14.06121391, "ECCENTRICITY": 0.01266516, "INCLINATION": 98.3984, "RA_OF_ASC_NODE": 209.4137, "ARG_OF_PERICENTER": 237.7957, "MEAN_ANOMALY": 121.0882, "EPHEMERIS_TYPE": 0, "CLASSIFICATION_TYPE": "U", "NORAD_CAT_ID": 30322, "ELEMENT_SET_NO": 999, "REV_AT_EPOCH": 96275, "BSTAR": 0.0011961347, "MEAN_MOTION_DOT": 2.073e-05, "MEAN_MOTION_DDOT": 0}, "tle": {"line1": "1 30322U 99025AAK 25352.10830052  .00002073  00000+0  11961-2 0  9992", "line2": "2 30322  98.3984 209.4137 0126651 237.7957 121.0882 14.06121391962759"}}, "geometry": {"type": "Point", "coordinates": [22.28426382322289, -44.08790330266993]}}, {"type": "Feature", "properties": {"norad_id": 30325, "name": "FENGYUN 1C DEB", "group": "fengyun-1c-debris", "lat": -34.05396880305817, "lon": 18.402563233015577, "alt_km": 868.9185552988265, "timestamp": "2025-12-19T06:59:44.184119+00:00", "meta": {"OBJECT_NAME": "FENGYUN 1C DEB", "OBJECT_ID": "1999-025AAL", "EPOCH": "2025-12-18T12:24:48.436992", "MEAN_MOTION": 14.09106132, "ECCENTRICITY": 0.00153842, "INCLINATION": 98.7324, "RA_OF_ASC_NODE": 11.6896, "ARG_OF_PERICENTER": 235.8936, "MEAN_ANOMALY": 124.0775, "EPHEMERIS_TYPE": 0, "CLASSIFICATION_TYPE": "U", "NORAD_CAT_ID": 30325, "ELEMENT_SET_NO": 999, "REV_AT_EPOCH": 97097, "BSTAR": 3.4673093e-05, "MEAN_MOTION_DOT": 1.8e-07, "MEAN_MOTION_DDOT": 0}, "tle": {"line1": "1 30325U 99025AAL 25352.51722728  .00000018  00000+0  34673-4 0  9994", "line2": "2 30325  98.7324  11.6896 0015384 235.8936 124.0775 14.09106132970971"}}, "geometry": {"type": "Point", "coordinates": [18.402563233015577, -34.05396880305817]}}, {"type": "Feature", "properties": {"norad_id": 30326, "name": "FENGYUN 1C DEB", "group": "fengyun-1c-debris", "lat": 53.478364741425715, "lon": -131.75722066299, "alt_km": 860.9990699801638, "timestamp": "2025-12-19T06:59:44.184129+00:00", "meta": {"OBJECT_NAME": "FENGYUN 1C DEB", "OBJECT_ID": "1999-025AAM", "EPOCH": "2025-12-18T09:56:34.198080", "MEAN_MOTION": 13.85477795, "ECCENTRICITY": 0.01421751, "INCLINATION": 98.6541, "RA_OF_ASC_NODE": 239.3003, "ARG_OF_PERICENTER": 15.1688, "MEAN_ANOMALY": 345.3667, "EPHEMERIS_TYPE": 0, "CLASSIFICATION_TYPE": "U", "NORAD_CAT_ID": 30326, "ELEMENT_SET_NO": 999, "REV_AT_EPOCH": 95534, "BSTAR": 0.00016718208, "MEAN_MOTION_DOT": 1.67e-06, "MEAN_MOTION_DDOT": 0}, "tle": {"line1": "1 30326U 99025AAM 25352.41428470  .00000167  00000+0  16718-3 0  9995", "line2": "2 30326  98.6541 239.3003 0142175  15.1688 345.3667 13.85477795955344"}}, "geometry": {"type": "Point", "coordinates": [-131.75722066299, 53.478364741425715]}}, {"type": "Feature", "properties": {"norad_id": 30327, "name": "FENGYUN 1C DEB", "group": "fengyun-1c-debris", "lat": -29.418076208532753, "lon": -107.91085307446895, "alt_km": 913.4275563528972, "timestamp": "2025-12-19T06:59:44.184140+00:00", "meta": {"OBJECT_NAME": "FENGYUN 1C DEB", "OBJECT_ID": "1999-025AAN", "EPOCH": "2025-12-18T16:02:07.741824", "MEAN_MOTION": 14.1802328, "ECCENTRICITY": 0.01173955, "INCLINATION": 98.4446, "RA_OF_ASC_NODE": 246.6908, "ARG_OF_PERICENTER": 125.5897, "MEAN_ANOMALY": 265.0794, "EPHEMERIS_TYPE": 0, "CLASSIFICATION_TYPE": "U", "NORAD_CAT_ID": 30327, "ELEMENT_SET_NO": 999, "REV_AT_EPOCH": 96527, "BSTAR": 0.0012478086, "MEAN_MOTION_DOT": 2.697e-05, "MEAN_MOTION_DDOT": 0}, "tle": {"line1": "1 30327U 99025AAN 25352.66814516  .00002697  00000+0  12478-2 0  9991", "line2": "2 30327  98.4446 246.6908 0117395 125.5897 265.0794 14.18023280965271"}}, "geometry": {"type": "Point", "coordinates": [-107.91085307446895, -29.418076208532753]}}, {"type": "Feature", "properties": {"norad_id": 30328, "name": "FENGYUN 1C DEB", "group": "fengyun-1c-debris", "lat": -3.997642149842291, "lon": 3.823604277551522, "alt_km": 857.6420614697226, "timestamp": "2025-12-19T06:59:44.184150+00:00", "meta": {"OBJECT_NAME": "FENGYUN 1C DEB", "OBJECT_ID": "1999-025AAP", "EPOCH": "2025-12-18T14:34:57.874656", "MEAN_MOTION": 14.12476571, "ECCENTRICITY": 0.00060305, "INCLINATION": 98.6861, "RA_OF_ASC_NODE": 2.5486, "ARG_OF_PERICENTER": 137.6764, "MEAN_ANOMALY": 342.9707, "EPHEMERIS_TYPE": 0, "CLASSIFICATION_TYPE": "U", "NORAD_CAT_ID": 30328, "ELEMENT_SET_NO": 999, "REV_AT_EPOCH": 97347, "BSTAR": 0.00011036762, "MEAN_MOTION_DOT": 1.61e-06, "MEAN_MOTION_DDOT": 0}, "tle": {"line1": "1 30328U 99025AAP 25352.60761429  .00000161  00000+0  11037-3 0  9995", "line2": "2 30328  98.6861   2.5486 0006030 137.6764 342.9707 14.12476571973474"}}, "geometry": {"type": "Point", "coordinates": [3.823604277551522, -3.997642149842291]}}, {"type": "Feature", "properties": {"norad_id": 30329, "name": "FENGYUN 1C DEB", "group": "fengyun-1c-debris", "lat": 15.549995431571674, "lon": 95.2043035571351, "alt_km": 1026.5975784217799, "timestamp": "2025-12-19T06:59:44.184160+00:00", "meta": {"OBJECT_NAME": "FENGYUN 1C DEB", "OBJECT_ID": "1999-025AAQ", "EPOCH": "2025-12-18T18:13:08.412096", "MEAN_MOTION": 13.86747986, "ECCENTRICITY": 0.01422219, "INCLINATION": 99.2627, "RA_OF_ASC_NODE": 272.0745, "ARG_OF_PERICENTER": 19.4757, "MEAN_ANOMALY": 7.4757, "EPHEMERIS_TYPE": 0, "CLASSIFICATION_TYPE": "U", "NORAD_CAT_ID": 30329, "ELEMENT_SET_NO": 999, "REV_AT_EPOCH": 95494, "BSTAR": 0.00038204992, "MEAN_MOTION_DOT": 4.38e-06, "MEAN_MOTION_DDOT": 0}, "tle": {"line1": "1 30329U 99025AAQ 25352.75912514  .00000438  00000+0  38205-3 0  9998", "line2": "2 30329  99.2627 272.0745 0142221  19.4757   7.4757 13.86747986954946"}}, "geometry": {"type": "Point", "coordinates": [95.2043035571351, 15.549995431571674]}}, {"type": "Feature", "properties": {"norad_id": 30330, "name": "FENGYUN 1C DEB", "group": "fengyun-1c-debris", "lat": 80.18450287199956, "lon": -79.44834145002474, "alt_km": 925.6908876440684, "timestamp": "2025-12-19T06:59:44.184170+00:00", "meta": {"OBJECT_NAME": "FENGYUN 1C DEB", "OBJECT_ID": "1999-025AAR", "EPOCH": "2025-12-18T22:11:56.931072", "MEAN_MOTION": 13.82076827, "ECCENTRICITY": 0.01876788, "INCLINATION": 98.8861, "RA_OF_ASC_NODE": 344.9288, "ARG_OF_PERICENTER": 168.0909, "MEAN_ANOMALY": 257.2418, "EPHEMERIS_TYPE": 0, "CLASSIFICATION_TYPE": "U", "NORAD_CAT_ID": 30330, "ELEMENT_SET_NO": 999, "REV_AT_EPOCH": 94743, "BSTAR": 0.0010098701, "MEAN_MOTION_DOT": 1.202e-05, "MEAN_MOTION_DDOT": 0}, "tle": {"line1": "1 30330U 99025AAR 25352.92496448  .00001202  00000+0  10099-2 0  9992", "line2": "2 30330  98.8861 344.9288 0187678 168.0909 257.2418 13.82076827947439"}}, "geometry": {"type": "Point", "coordinates": [-79.44834145002474, 80.18450287199956]}}, {"type": "Feature", "properties": {"norad_id": 30331, "name": "FENGYUN 1C DEB", "group": "fengyun-1c-debris", "lat": -31.187860323306563, "lon": 33.18468501445598, "alt_km": 842.0705764740442, "timestamp": "2025-12-19T06:59:44.184181+00:00", "meta": {"OBJECT_NAME": "FENGYUN 1C DEB", "OBJECT_ID": "1999-025AAS", "EPOCH": "2025-12-18T23:06:56.057184", "MEAN_MOTION": 13.97836745, "ECCENTRICITY": 0.00960511, "INCLINATION": 98.9556, "RA_OF_ASC_NODE": 27.387, "ARG_OF_PERICENTER": 350.8709, "MEAN_ANOMALY": 126.6714, "EPHEMERIS_TYPE": 0, "CLASSIFICATION_TYPE": "U", "NORAD_CAT_ID": 30331, "ELEMENT_SET_NO": 999, "REV_AT_EPOCH": 96206, "BSTAR": 0.00036778021, "MEAN_MOTION_DOT": 4.98e-06, "MEAN_MOTION_DDOT": 0}, "tle": {"line1": "1 30331U 99025AAS 25352.96314881  .00000498  00000+0  36778-3 0  9996", "line2": "2 30331  98.9556  27.3870 0096051 350.8709 126.6714 13.97836745962067"}}, "geometry": {"type": "Point", "coordinates": [33.18468501445598, -31.187860323306563]}}]}